{"type": "FeatureCollection", "features": [ {"type": "Feature", "properties": {"norad_id": 30411, "name": "FENGYUN 1C DEB", "group": "fengyun-1c-debris", "lat": 72.44104985782789, "lon": 106.99330454954988, "alt_km": 771.4805131051644, "timestamp": "2025-12-13T22:39:29.986394+00:00", "meta": {"OBJECT_NAME": "FENGYUN 1C DEB", "OBJECT_ID": "1999-025AEA", "EPOCH": "2025-12-13T05:06:25.888032", "MEAN_MOTION": 14.07651236, "ECCENTRICITY": 0.01227985, "INCLINATION": 98.5799, "RA_OF_ASC_NODE": 257.8016, "ARG_OF_PERICENTER": 105.3245, "MEAN_ANOMALY": 256.1534, "EPHEMERIS_TYPE": 0, "CLASSIFICATION_TYPE": "U", "NORAD_CAT_ID": 30411, "ELEMENT_SET_NO": 999, "REV_AT_EPOCH": 95990, "BSTAR": 0.0023338116, "MEAN_MOTION_DOT": 4.186e-05, "MEAN_MOTION_DDOT": 0}, "tle": {"line1": "1 30411U 99025AEA 25347.21279963  .00004186  00000+0  23338-2 0  9993", "line2": "2 30411  98.5799 257.8016 0122798 105.3245 256.1534 14.07651236959909"}}, "geometry": {"type": "Point", "coordinates": [106.99330454954988, 72.44104985782789]}}, {"type": "Feature", "properties": {"norad_id": 30413, "name": "FENGYUN 1C DEB", "group": "fengyun-1c-debris", "lat": -64.32839149213422, "lon": 14.886885204205596, "alt_km": 763.2090839044868, "timestamp": "2025-12-13T22:39:29.986405+00:00", "meta": {"OBJECT_NAME": "FENGYUN 1C DEB", "OBJECT_ID": "1999-025AEC", "EPOCH": "2025-12-13T03:46:32.327040", "MEAN_MOTION": 14.3254351, "ECCENTRICITY": 0.00452131, "INCLINATION": 102.0623, "RA_OF_ASC_NODE": 220.2113, "ARG_OF_PERICENTER": 215.6606, "MEAN_ANOMALY": 295.6609, "EPHEMERIS_TYPE": 0, "CLASSIFICATION_TYPE": "U", "NORAD_CAT_ID": 30413, "ELEMENT_SET_NO": 999, "REV_AT_EPOCH": 97145, "BSTAR": 0.0029343212, "MEAN_MOTION_DOT": 7.987e-05, "MEAN_MOTION_DDOT": 0}, "tle": {"line1": "1 30413U 99025AEC 25347.15731860  .00007987  00000+0  29343-2 0  9991", "line2": "2 30413 102.0623 220.2113 0045213 215.6606 295.6609 14.32543510971450"}}, "geometry": {"type": "Point", "coordinates": [14.886885204205596, -64.32839149213422]}}, {"type": "Feature", "properties": {"norad_id": 30414, "name": "FENGYUN 1C DEB", "group": "fengyun-1c-debris", "lat": -18.15730799710734, "lon": 148.2605581425663, "alt_km": 820.9808340599511, "timestamp": "2025-12-13T22:39:29.986415+00:00", "meta": {"OBJECT_NAME": "FENGYUN 1C DEB", "OBJECT_ID": "1999-025AED", "EPOCH": "2025-12-12T23:18:12.177792", "MEAN_MOTION": 14.3416519, "ECCENTRICITY": 0.00583851, "INCLINATION": 99.0804, "RA_OF_ASC_NODE": 144.2326, "ARG_OF_PERICENTER": 188.1399, "MEAN_ANOMALY": 171.8842, "EPHEMERIS_TYPE": 0, "CLASSIFICATION_TYPE": "U", "NORAD_CAT_ID": 30414, "ELEMENT_SET_NO": 999, "REV_AT_EPOCH": 97090, "BSTAR": 0.0036617651, "MEAN_MOTION_DOT": 0.00010422, "MEAN_MOTION_DDOT": 0}, "tle": {"line1": "1 30414U 99025AED 25346.97097428  .00010422  00000+0  36618-2 0  9997", "line2": "2 30414  99.0804 144.2326 0058385 188.1399 171.8842 14.34165190970904"}}, "geometry": {"type": "Point", "coordinates": [148.2605581425663, -18.15730799710734]}}, {"type": "Feature", "properties": {"norad_id": 30415, "name": "FENGYUN 1C DEB", "group": "fengyun-1c-debris", "lat": 38.95620877539154, "lon": -123.90382279207694, "alt_km": 1100.823766574661, "timestamp": "2025-12-13T22:39:29.986425+00:00", "meta": {"OBJECT_NAME": "FENGYUN 1C DEB", "OBJECT_ID": "1999-025AEE", "EPOCH": "2025-12-13T02:48:46.573344", "MEAN_MOTION": 13.68936428, "ECCENTRICITY": 0.02387472, "INCLINATION": 99.646, "RA_OF_ASC_NODE": 47.3652, "ARG_OF_PERICENTER": 268.3014, "MEAN_ANOMALY": 121.2911, "EPHEMERIS_TYPE": 0, "CLASSIFICATION_TYPE": "U", "NORAD_CAT_ID": 30415, "ELEMENT_SET_NO": 999, "REV_AT_EPOCH": 93883, "BSTAR": 0.001722423, "MEAN_MOTION_DOT": 1.767e-05, "MEAN_MOTION_DDOT": 0}, "tle": {"line1": "1 30415U 99025AEE 25347.11720571  .00001767  00000+0  17224-2 0  9991", "line2": "2 30415  99.6460  47.3652 0238747 268.3014 121.2911 13.68936428938839"}}, "geometry": {"type": "Point", "coordinates": [-123.90382279207694, 38.95620877539154]}}, {"type": "Feature", "properties": {"norad_id": 30416, "name": "FENGYUN 1C DEB", "group": "fengyun-1c-debris", "lat": 43.55552916509213, "lon": 3.8135952311203525, "alt_km": 912.772223763006, "timestamp": "2025-12-13T22:39:29.986435+00:00", "meta": {"OBJECT_NAME": "FENGYUN 1C DEB", "OBJECT_ID": "1999-025AEF", "EPOCH": "2025-12-12T19:03:13.072320", "MEAN_MOTION": 14.02629894, "ECCENTRICITY": 0.0055506, "INCLINATION": 98.8351, "RA_OF_ASC_NODE": 11.2022, "ARG_OF_PERICENTER": 189.7128, "MEAN_ANOMALY": 170.297, "EPHEMERIS_TYPE": 0, "CLASSIFICATION_TYPE": "U", "NORAD_CAT_ID": 30416, "ELEMENT_SET_NO": 999, "REV_AT_EPOCH": 96625, "BSTAR": 0.0005441657, "MEAN_MOTION_DOT": 8.08e-06, "MEAN_MOTION_DDOT": 0}, "tle": {"line1": "1 30416U 99025AEF 25346.79390130  .00000808  00000+0  54417-3 0  9990", "line2": "2 30416  98.8351  11.2022 0055506 189.7128 170.2970 14.02629894966254"}}, "geometry": {"type": "Point", "coordinates": [3.8135952311203525, 43.55552916509213]}}, {"type": "Feature", "properties": {"norad_id": 30417, "name": "FENGYUN 1C DEB", "group": "fengyun-1c-debris", "lat": -45.52505601475616, "lon": -13.13930005130226, "alt_km": 894.5729261375482, "timestamp": "2025-12-13T22:39:29.986445+00:00", "meta": {"OBJECT_NAME": "FENGYUN 1C DEB", "OBJECT_ID": "1999-025AEG", "EPOCH": "2025-12-13T05:58:38.669088", "MEAN_MOTION": 14.14663772, "ECCENTRICITY": 0.00644553, "INCLINATION": 98.6931, "RA_OF_ASC_NODE": 337.2193, "ARG_OF_PERICENTER": 118.5615, "MEAN_ANOMALY": 257.8378, "EPHEMERIS_TYPE": 0, "CLASSIFICATION_TYPE": "U", "NORAD_CAT_ID": 30417, "ELEMENT_SET_NO": 999, "REV_AT_EPOCH": 97396, "BSTAR": 0.00040333167, "MEAN_MOTION_DOT": 7.49e-06, "MEAN_MOTION_DDOT": 0}, "tle": {"line1": "1 30417U 99025AEG 25347.24905867  .00000749  00000+0  40333-3 0  9997", "line2": "2 30417  98.6931 337.2193 0064455 118.5615 257.8378 14.14663772973967"}}, "geometry": {"type": "Point", "coordinates": [-13.13930005130226, -45.52505601475616]}}, {"type": "Feature", "properties": {"norad_id": 30418, "name": "FENGYUN 1C DEB", "group": "fengyun-1c-debris", "lat": 32.509487260694186, "lon": 142.16468799607856, "alt_km": 597.9843772857439, "timestamp": "2025-12-13T22:39:29.986456+00:00", "meta": {"OBJECT_NAME": "FENGYUN 1C DEB", "OBJECT_ID": "1999-025AEH", "EPOCH": "2025-12-13T05:29:29.039712", "MEAN_MOTION": 14.84220506, "ECCENTRICITY": 0.01112273, "INCLINATION": 98.8406, "RA_OF_ASC_NODE": 147.065, "ARG_OF_PERICENTER": 114.037, "MEAN_ANOMALY": 60.579, "EPHEMERIS_TYPE": 0, "CLASSIFICATION_TYPE": "U", "NORAD_CAT_ID": 30418, "ELEMENT_SET_NO": 999, "REV_AT_EPOCH": 599, "BSTAR": 0.0015937718, "MEAN_MOTION_DOT": 0.00014849, "MEAN_MOTION_DDOT": 0}, "tle": {"line1": "1 30418U 99025AEH 25347.22880833  .00014849  00000+0  15938-2 0  9999", "line2": "2 30418  98.8406 147.0650 0111227 114.0370  60.5790 14.84220506  5998"}}, "geometry": {"type": "Point", "coordinates": [142.16468799607856, 32.509487260694186]}}, {"type": "Feature", "properties": {"norad_id": 30419, "name": "FENGYUN 1C DEB", "group": "fengyun-1c-debris", "lat": -30.97577126889447, "lon": 109.17383288545963, "alt_km": 875.6316490057752, "timestamp": "2025-12-13T22:39:29.986467+00:00", "meta": {"OBJECT_NAME": "FENGYUN 1C DEB", "OBJECT_ID": "1999-025AEJ", "EPOCH": "2025-12-12T20:21:24.409152", "MEAN_MOTION": 14.18039774, "ECCENTRICITY": 0.00530842, "INCLINATION": 99.2401, "RA_OF_ASC_NODE": 293.6417, "ARG_OF_PERICENTER": 24.6895, "MEAN_ANOMALY": 355.3263, "EPHEMERIS_TYPE": 0, "CLASSIFICATION_TYPE": "U", "NORAD_CAT_ID": 30419, "ELEMENT_SET_NO": 999, "REV_AT_EPOCH": 97350, "BSTAR": 0.0012872136, "MEAN_MOTION_DOT": 2.628e-05, "MEAN_MOTION_DDOT": 0}, "tle": {"line1": "1 30419U 99025AEJ 25346.84819918  .00002628  00000+0  12872-2 0  9999", "line2": "2 30419  99.2401 293.6417 0053084  24.6895 355.3263 14.18039774973505"}}, "geometry": {"type": "Point", "coordinates": [109.17383288545963, -30.97577126889447]}}, {"type": "Feature", "properties": {"norad_id": 30432, "name": "FENGYUN 1C DEB", "group": "fengyun-1c-debris", "lat": -57.58054200099645, "lon": -98.96959347509568, "alt_km": 714.0628111827937, "timestamp": "2025-12-13T22:39:29.986477+00:00", "meta": {"OBJECT_NAME": "FENGYUN 1C DEB", "OBJECT_ID": "1999-025AET", "EPOCH": "2025-12-13T04:35:27.831840", "MEAN_MOTION": 14.40684347, "ECCENTRICITY": 0.0082974, "INCLINATION": 98.8351, "RA_OF_ASC_NODE": 246.0771, "ARG_OF_PERICENTER": 337.652, "MEAN_ANOMALY": 22.1061, "EPHEMERIS_TYPE": 0, "CLASSIFICATION_TYPE": "U", "NORAD_CAT_ID": 30432, "ELEMENT_SET_NO": 999, "REV_AT_EPOCH": 98741, "BSTAR": 0.0011215874, "MEAN_MOTION_DOT": 3.683e-05, "MEAN_MOTION_DDOT": 0}, "tle": {"line1": "1 30432U 99025AET 25347.19129435  .00003683  00000+0  11216-2 0  9994", "line2": "2 30432  98.8351 246.0771 0082974 337.6520  22.1061 14.40684347987413"}}, "geometry": {"type": "Point", "coordinates": [-98.96959347509568, -57.58054200099645]}}, {"type": "Feature", "properties": {"norad_id": 30434, "name": "FENGYUN 1C DEB", "group": "fengyun-1c-debris", "lat": -55.692509006449214, "lon": 141.2942782237985, "alt_km": 846.0923569659772, "timestamp": "2025-12-13T22:39:29.986488+00:00", "meta": {"OBJECT_NAME": "FENGYUN 1C DEB", "OBJECT_ID": "1999-025AEV", "EPOCH": "2025-12-10T11:22:16.932576", "MEAN_MOTION": 13.90647911, "ECCENTRICITY": 0.01207823, "INCLINATION": 98.9988, "RA_OF_ASC_NODE": 331.362, "ARG_OF_PERICENTER": 237.4216, "MEAN_ANOMALY": 275.0449, "EPHEMERIS_TYPE": 0, "CLASSIFICATION_TYPE": "U", "NORAD_CAT_ID": 30434, "ELEMENT_SET_NO": 999, "REV_AT_EPOCH": 95675, "BSTAR": 0.00047001157, "MEAN_MOTION_DOT": 5.78e-06, "MEAN_MOTION_DDOT": 0}, "tle": {"line1": "1 30434U 99025AEV 25344.47380709  .00000578  00000+0  47001-3 0  9999", "line2": "2 30434  98.9988 331.3620 0120782 237.4216 275.0449 13.90647911956754"}}, "geometry": {"type": "Point", "coordinates": [141.2942782237985, -55.692509006449214]}}]}